NORAD_CAT_ID,OBJECT_NAME,OBJECT_TYPE,EPOCH,MEAN_MOTION,ECCENTRICITY,INCLINATION,RA_OF_ASC_NODE,ARG_OF_PERICENTER,MEAN_ANOMALY,BSTAR,MEAN_MOTION_DOT,MEAN_MOTION_DDOT,TLE_LINE0,TLE_LINE1,TLE_LINE2,SEMIMAJOR_AXIS,PERIOD,APOGEE,PERIGEE,DECAYED
52475.0,STARLINK-3882,PAYLOAD,2024-02-27 12:01:43,15.08846967,0.0001582,53.2165,146.67,93.795,266.3223,0.00011731,1.58e-05,0.0,0 STARLINK-3882,1 52475U 22049AA  24058.50119340  .00001580  00000-0  11731-3 0  9992,2 52475  53.2165 146.6700 0001582  93.7950 266.3223 15.08846967100515,6917.859,95.437,540.818,538.63,0.0
52475.0,STARLINK-3882,PAYLOAD,2024-02-27 13:37:06,15.08847778,0.0001559,53.2164,146.3724,92.5837,267.5333,0.00013897,1.925e-05,0.0,0 STARLINK-3882,1 52475U 22049AA  24058.56743298  .00001925  00000-0  13897-3 0  9991,2 52475  53.2164 146.3724 0001559  92.5837 267.5333 15.08847778100361,6917.857,95.437,540.8,538.643,0.0
52475.0,STARLINK-3882,PAYLOAD,2024-02-28 11:52:30,15.08840939,0.0001479,53.2157,142.2083,98.2814,261.8346,0.00025665,3.799e-05,0.0,0 STARLINK-3882,1 52475U 22049AA  24059.49479825  .00003799  00000-0  25665-3 0  9993,2 52475  53.2157 142.2083 0001479  98.2814 261.8346 15.08840939100661,6917.878,95.437,540.766,538.719,0.0
52475.0,STARLINK-3882,PAYLOAD,2024-02-29 14:54:03,15.08850355,0.0001411,53.2155,137.1519,89.9367,270.1787,0.00013731,1.899e-05,0.0,0 STARLINK-3882,1 52475U 22049AA  24060.62087135  .00001899  00000-0  13731-3 0  9999,2 52475  53.2155 137.1519 0001411  89.9367 270.1787 15.08850355100678,6917.849,95.437,540.69,538.738,0.0
52475.0,STARLINK-3882,PAYLOAD,2024-03-01 11:34:04,15.08846866,0.0001365,53.2163,133.2866,96.1504,263.9644,0.00014462,2.015e-05,0.0,0 STARLINK-3882,1 52475U 22049AA  24061.48199110  .00002015  00000-0  14462-3 0  9994,2 52475  53.2163 133.2866 0001365  96.1504 263.9644 15.08846866100809,6917.859,95.437,540.669,538.78,0.0
52475.0,STARLINK-3882,PAYLOAD,2024-03-02 11:24:51,15.08845761,0.0001516,53.2167,128.8277,90.5032,269.6134,8.786e-05,1.111e-05,0.0,0 STARLINK-3882,1 52475U 22049AA  24062.47559112  .00001111  00000-0  87860-4 0  9995,2 52475  53.2167 128.8277 0001516  90.5032 269.6134 15.08845761101116,6917.863,95.437,540.777,538.679,0.0
52475.0,STARLINK-3882,PAYLOAD,2024-03-03 03:18:42,15.0883774,0.0001265,53.2173,125.857,83.7964,276.3172,7.9577e-05,9.79e-06,0.0,0 STARLINK-3882,1 52475U 22049AA  24063.13799425  .00000979  00000-0  79577-4 0  9999,2 52475  53.2173 125.8570 0001265  83.7964 276.3172 15.08837740101211,6917.887,95.438,540.627,538.877,0.0
52475.0,STARLINK-3882,PAYLOAD,2024-03-03 11:15:38,15.08838362,0.0001487,53.2179,124.3666,94.0311,266.0852,-4.0879e-06,-3.53e-06,0.0,0 STARLINK-3882,1 52475U 22049AA  24063.46919910 -.00000353  00000-0 -40879-5 0  9990,2 52475  53.2179 124.3666 0001487  94.0311 266.0852 15.08838362101104,6917.885,95.438,540.779,538.722,0.0
52475.0,STARLINK-3882,PAYLOAD,2024-03-04 12:41:47,15.08860213,0.0001447,53.2161,119.6062,89.3029,270.8129,0.00026941,4.005e-05,0.0,0 STARLINK-3882,1 52475U 22049AA  24064.52902180  .00004005  00000-0  26941-3 0  9997,2 52475  53.2161 119.6062 0001447  89.3029 270.8129 15.08860213101426,6917.819,95.436,540.685,538.683,0.0
52475.0,STARLINK-3882,PAYLOAD,2024-03-04 20:38:44,15.08833148,0.0001235,53.2166,118.1212,95.3496,264.7637,-2.4791e-05,-6.82e-06,0.0,0 STARLINK-3882,1 52475U 22049AA  24064.86023615 -.00000682  00000-0 -24791-4 0  9992,2 52475  53.2166 118.1212 0001235  95.3496 264.7637 15.08833148101470,6917.901,95.438,540.621,538.912,0.0
52475.0,STARLINK-3882,PAYLOAD,2024-03-05 12:32:36,15.08826498,0.0001555,53.2155,115.1478,95.9202,264.1967,-6.555e-05,-1.331e-05,0.0,0 STARLINK-3882,1 52475U 22049AA  24065.52264595 -.00001331  00000-0 -65550-4 0  9990,2 52475  53.2155 115.1478 0001555  95.9202 264.1967 15.08826498101419,6917.922,95.438,540.862,538.711,0.0
52475.0,STARLINK-3882,PAYLOAD,2024-03-06 09:12:37,15.08852936,0.0001524,53.2155,111.2807,104.2171,255.899,0.0012976,0.00020431,0.0,0 STARLINK-3882,1 52475U 22049AA  24066.38376758  .00020431  00000-0  12976-2 0  9992,2 52475  53.2155 111.2807 0001524 104.2171 255.8990 15.08852936101708,6917.841,95.437,540.76,538.652,0.0
52475.0,STARLINK-3882,PAYLOAD,2024-03-07 09:03:24,15.08857545,0.0001492,53.2153,106.8225,94.7114,265.4049,0.00055313,8.53e-05,0.0,0 STARLINK-3882,1 52475U 22049AA  24067.37736200  .00008530  00000-0  55313-3 0  9993,2 52475  53.2153 106.8225 0001492  94.7114 265.4049 15.08857545101695,6917.827,95.436,540.724,538.66,0.0
52475.0,STARLINK-3882,PAYLOAD,2024-03-08 05:43:24,15.08843151,0.000179,53.2156,102.9535,102.3256,257.7937,0.00019782,2.862e-05,0.0,0 STARLINK-3882,1 52475U 22049AA  24068.23848329  .00002862  00000-0  19782-3 0  9997,2 52475  53.2156 102.9535 0001790 102.3256 257.7937 15.08843151101983,6917.871,95.437,540.974,538.497,0.0
52475.0,STARLINK-3882,PAYLOAD,2024-03-08 12:04:57,15.08840371,0.0001749,53.2167,101.7674,98.5792,261.5398,-1.4957e-05,-5.26e-06,0.0,0 STARLINK-3882,1 52475U 22049AA  24068.50344594 -.00000526  00000-0 -14957-4 0  9999,2 52475  53.2167 101.7674 0001749  98.5792 261.5398 15.08840371101863,6917.879,95.438,540.954,538.534,0.0
52475.0,STARLINK-3882,PAYLOAD,2024-03-09 11:55:41,15.08884284,0.0001489,53.217,97.3044,94.366,265.7502,0.00040862,6.229e-05,0.0,0 STARLINK-3882,1 52475U 22049AA  24069.49700456  .00006229  00000-0  40862-3 0  9998,2 52475  53.2170  97.3044 0001489  94.3660 265.7502 15.08884284102176,6917.745,95.435,540.64,538.58,0.0
52475.0,STARLINK-3882,PAYLOAD,2024-03-10 05:25:00,15.08819889,0.0001637,53.217,94.0371,56.6854,303.4295,-0.00010797,-2.005e-05,0.0,0 STARLINK-3882,1 52475U 22049AA  24070.22569775 -.00002005  00000-0 -10797-3 0  9992,2 52475  53.2170  94.0371 0001637  56.6854 303.4295 15.08819889102284,6917.942,95.439,540.939,538.674,0.0
52475.0,STARLINK-3882,PAYLOAD,2024-03-10 08:35:46,15.08824273,0.0001695,53.2173,93.4416,88.0628,272.0558,-6.7329e-05,-1.359e-05,0.0,0 STARLINK-3882,1 52475U 22049AA  24070.35817417 -.00001359  00000-0 -67329-4 0  9990,2 52475  53.2173  93.4416 0001695  88.0628 272.0558 15.08824273102301,6917.928,95.439,540.966,538.621,0.0
52475.0,STARLINK-3882,PAYLOAD,2024-03-10 18:08:05,15.08827698,0.0001778,53.2182,91.6572,90.5374,269.5822,-3.1708e-05,-7.93e-06,0.0,0 STARLINK-3882,1 52475U 22049AA  24070.75561362 -.00000793  00000-0 -31708-4 0  9992,2 52475  53.2182  91.6572 0001778  90.5374 269.5822 15.08827698102200,6917.918,95.438,541.013,538.553,0.0
52475.0,STARLINK-3882,PAYLOAD,2024-03-11 05:15:46,15.08852558,0.0001576,53.2164,89.5716,88.3699,271.7474,-0.00030032,-5.066e-05,0.0,0 STARLINK-3882,1 52475U 22049AA  24071.21928669 -.00005066  00000-0 -30032-3 0  9997,2 52475  53.2164  89.5716 0001576  88.3699 271.7474 15.08852558102433,6917.842,95.437,540.797,538.617,0.0
52475.0,STARLINK-3882,PAYLOAD,2024-03-11 08:26:31,15.08844947,0.000172,53.2155,88.9783,92.889,267.2299,-0.0003212,-5.397e-05,0.0,0 STARLINK-3882,1 52475U 22049AA  24071.35175907 -.00005397  00000-0 -32120-3 0  9998,2 52475  53.2155  88.9783 0001720  92.8890 267.2299 15.08844947102296,6917.865,95.437,540.92,538.54,0.0
52475.0,STARLINK-3882,PAYLOAD,2024-03-12 05:06:33,15.08830247,0.0001899,53.2158,85.113,95.8229,264.298,0.00023389,3.435e-05,0.0,0 STARLINK-3882,1 52475U 22049AA  24072.21289230  .00003435  00000-0  23389-3 0  9995,2 52475  53.2158  85.1130 0001899  95.8229 264.2980 15.08830247102584,6917.91,95.438,541.089,538.461,0.0
52475.0,STARLINK-3882,PAYLOAD,2024-03-12 09:52:43,15.08836917,0.0001918,53.2158,84.2211,96.6754,263.4457,0.00032599,4.903e-05,0.0,0 STARLINK-3882,1 52475U 22049AA  24072.41161142  .00004903  00000-0  32599-3 0  9992,2 52475  53.2158  84.2211 0001918  96.6754 263.4457 15.08836917102454,6917.89,95.438,541.082,538.428,0.0
52475.0,STARLINK-3882,PAYLOAD,2024-03-13 09:43:30,15.0884184,0.0001976,53.2163,79.7598,94.9103,265.2115,0.0001646,2.333e-05,0.0,0 STARLINK-3882,1 52475U 22049AA  24073.40521249  .00002333  00000-0  16460-3 0  9994,2 52475  53.2163  79.7598 0001976  94.9103 265.2115 15.08841840102766,6917.875,95.437,541.107,538.373,0.0
52475.0,STARLINK-3882,PAYLOAD,2024-03-14 06:23:31,15.08841591,0.0001942,53.2165,75.8905,100.5448,259.5763,0.00011599,1.558e-05,0.0,0 STARLINK-3882,1 52475U 22049AA  24074.26633367  .00001558  00000-0  11599-3 0  9990,2 52475  53.2165  75.8905 0001942 100.5448 259.5763 15.08841591102731,6917.876,95.437,541.084,538.397,0.0
52475.0,STARLINK-3882,PAYLOAD,2024-03-15 06:14:18,15.08846289,0.000192,53.2167,71.4326,95.2304,264.8907,0.00014835,2.074e-05,0.0,0 STARLINK-3882,1 52475U 22049AA  24075.25993177  .00002074  00000-0  14835-3 0  9998,2 52475  53.2167  71.4326 0001920  95.2304 264.8907 15.08846289102883,6917.861,95.437,541.054,538.398,0.0
52475.0,STARLINK-3882,PAYLOAD,2024-03-16 04:29:42,15.08840536,0.0001978,53.2167,67.2703,94.6833,265.4385,5.2867e-05,5.53e-06,0.0,0 STARLINK-3882,1 52475U 22049AA  24076.18729417  .00000553  00000-0  52867-4 0  9993,2 52475  53.2167  67.2703 0001978  94.6833 265.4385 15.08840536103188,6917.879,95.438,541.112,538.375,0.0
52475.0,STARLINK-3882,PAYLOAD,2024-03-16 06:05:05,15.0884081,0.0001937,53.2174,66.9733,95.2393,264.882,5.2475e-05,5.47e-06,0.0,0 STARLINK-3882,1 52475U 22049AA  24076.25353453  .00000547  00000-0  52475-4 0  9992,2 52475  53.2174  66.9733 0001937  95.2393 264.8820 15.08840810103034,6917.878,95.438,541.083,538.403,0.0
52475.0,STARLINK-3882,PAYLOAD,2024-03-17 05:55:52,15.08838698,0.0002023,53.2183,62.5129,108.3095,251.8117,2.9708e-05,1.85e-06,0.0,0 STARLINK-3882,1 52475U 22049AA  24077.24713560  .00000185  00000-0  29708-4 0  9992,2 52475  53.2183  62.5129 0002023 108.3095 251.8117 15.08838698103347,6917.884,95.438,541.149,538.35,0.0
52475.0,STARLINK-3882,PAYLOAD,2024-03-17 21:49:43,15.08837024,0.000195,53.2185,59.5403,106.6549,253.4657,6.4991e-05,7.46e-06,0.0,0 STARLINK-3882,1 52475U 22049AA  24077.90953672  .00000746  00000-0  64991-4 0  9991,2 52475  53.2185  59.5403 0001950 106.6549 253.4657 15.08837024103285,6917.889,95.438,541.103,538.405,0.0
